[{"OBJECT_NAME":"DUPLEX","OBJECT_ID":"1998-067XS","EPOCH":"2026-03-29T22:24:55.683648","MEAN_MOTION":15.57578129,"ECCENTRICITY":0.000304,"INCLINATION":51.6302,"RA_OF_ASC_NODE":328.0938,"ARG_OF_PERICENTER":205.312,"MEAN_ANOMALY":154.7723,"EPHEMERIS_TYPE":0,"CLASSIFICATION_TYPE":"U","NORAD_CAT_ID":66906,"ELEMENT_SET_NO":999,"REV_AT_EPOCH":1828,"BSTAR":0.00050515,"MEAN_MOTION_DOT":0.00037673,"MEAN_MOTION_DDOT":0},{"OBJECT_NAME":"ISS OBJECT XT","OBJECT_ID":"1998-067XT","EPOCH":"2026-03-30T01:00:00.466848","MEAN_MOTION":15.76980262,"ECCENTRICITY":0.0006253,"INCLINATION":51.6239,"RA_OF_ASC_NODE":321.2742,"ARG_OF_PERICENTER":212.1328,"MEAN_ANOMALY":147.9292,"EPHEMERIS_TYPE":0,"CLASSIFICATION_TYPE":"U","NORAD_CAT_ID":66907,"ELEMENT_SET_NO":999,"REV_AT_EPOCH":1838,"BSTAR":0.0016026,"MEAN_MOTION_DOT":0.0027397,"MEAN_MOTION_DDOT":0},{"OBJECT_NAME":"ISS OBJECT XU","OBJECT_ID":"1998-067XU","EPOCH":"2026-03-30T00:54:15.501888","MEAN_MOTION":15.77231369,"ECCENTRICITY":0.0006488,"INCLINATION":51.6244,"RA_OF_ASC_NODE":321.2426,"ARG_OF_PERICENTER":211.6504,"MEAN_ANOMALY":148.4107,"EPHEMERIS_TYPE":0,"CLASSIFICATION_TYPE":"U","NORAD_CAT_ID":66908,"ELEMENT_SET_NO":999,"REV_AT_EPOCH":1838,"BSTAR":0.0015861,"MEAN_MOTION_DOT":0.00274217,"MEAN_MOTION_DDOT":0},{"OBJECT_NAME":"SILVERSAT","OBJECT_ID":"1998-067XV","EPOCH":"2026-03-30T01:12:48.546432","MEAN_MOTION":15.82812364,"ECCENTRICITY":0.0007441,"INCLINATION":51.6206,"RA_OF_ASC_NODE":319.8153,"ARG_OF_PERICENTER":218.1968,"MEAN_ANOMALY":141.8508,"EPHEMERIS_TYPE":0,"CLASSIFICATION_TYPE":"U","NORAD_CAT_ID":66909,"ELEMENT_SET_NO":999,"REV_AT_EPOCH":1840,"BSTAR":0.0017961,"MEAN_MOTION_DOT":0.00407211,"MEAN_MOTION_DDOT":0},{"OBJECT_NAME":"ISS OBJECT XW","OBJECT_ID":"1998-067XW","EPOCH":"2026-03-30T01:11:55.466592","MEAN_MOTION":15.75441694,"ECCENTRICITY":0.00066,"INCLINATION":51.6227,"RA_OF_ASC_NODE":321.3222,"ARG_OF_PERICENTER":209.0405,"MEAN_ANOMALY":151.0228,"EPHEMERIS_TYPE":0,"CLASSIFICATION_TYPE":"U","NORAD_CAT_ID":66910,"ELEMENT_SET_NO":999,"REV_AT_EPOCH":1838,"BSTAR":0.0014855,"MEAN_MOTION_DOT":0.00236237,"MEAN_MOTION_DDOT":0},{"OBJECT_NAME":"ISS OBJECT XX","OBJECT_ID":"1998-067XX","EPOCH":"2026-03-30T01:11:48.556320","MEAN_MOTION":15.89992483,"ECCENTRICITY":0.0009432,"INCLINATION":51.6172,"RA_OF_ASC_NODE":318.273,"ARG_OF_PERICENTER":222.9554,"MEAN_ANOMALY":137.0716,"EPHEMERIS_TYPE":0,"CLASSIFICATION_TYPE":"U","NORAD_CAT_ID":66911,"ELEMENT_SET_NO":999,"REV_AT_EPOCH":1841,"BSTAR":0.0019125,"MEAN_MOTION_DOT":0.00585789,"MEAN_MOTION_DDOT":0.00014316},{"OBJECT_NAME":"ISS OBJECT XY","OBJECT_ID":"1998-067XY","EPOCH":"2026-03-30T00:08:30.969600","MEAN_MOTION":15.67909669,"ECCENTRICITY":0.0004509,"INCLINATION":51.6265,"RA_OF_ASC_NODE":324.061,"ARG_OF_PERICENTER":207.7928,"MEAN_ANOMALY":152.2828,"EPHEMERIS_TYPE":0,"CLASSIFICATION_TYPE":"U","NORAD_CAT_ID":66912,"ELEMENT_SET_NO":999,"REV_AT_EPOCH":1833,"BSTAR":0.001188,"MEAN_MOTION_DOT":0.00135548,"MEAN_MOTION_DDOT":0},{"OBJECT_NAME":"KNACKSAT-2","OBJECT_ID":"1998-067XZ","EPOCH":"2026-03-30T01:35:16.183392","MEAN_MOTION":15.53540643,"ECCENTRICITY":0.0010084,"INCLINATION":51.6326,"RA_OF_ASC_NODE":330.4771,"ARG_OF_PERICENTER":259.9435,"MEAN_ANOMALY":100.0418,"EPHEMERIS_TYPE":0,"CLASSIFICATION_TYPE":"U","NORAD_CAT_ID":67683,"ELEMENT_SET_NO":999,"REV_AT_EPOCH":795,"BSTAR":0.0008216,"MEAN_MOTION_DOT":0.00053219,"MEAN_MOTION_DDOT":0},{"OBJECT_NAME":"CORAL","OBJECT_ID":"1998-067YA","EPOCH":"2026-03-30T01:25:09.312384","MEAN_MOTION":15.57840895,"ECCENTRICITY":0.001288,"INCLINATION":51.6303,"RA_OF_ASC_NODE":329.6801,"ARG_OF_PERICENTER":249.3222,"MEAN_ANOMALY":110.6389,"EPHEMERIS_TYPE":0,"CLASSIFICATION_TYPE":"U","NORAD_CAT_ID":67684,"ELEMENT_SET_NO":999,"REV_AT_EPOCH":796,"BSTAR":0.0014285,"MEAN_MOTION_DOT":0.0010987,"MEAN_MOTION_DDOT":0},{"OBJECT_NAME":"GXIBA-1","OBJECT_ID":"1998-067YB","EPOCH":"2026-03-30T01:20:14.376480","MEAN_MOTION":15.54098207,"ECCENTRICITY":0.0012014,"INCLINATION":51.6323,"RA_OF_ASC_NODE":330.4074,"ARG_OF_PERICENTER":256.8362,"MEAN_ANOMALY":103.1288,"EPHEMERIS_TYPE":0,"CLASSIFICATION_TYPE":"U","NORAD_CAT_ID":67685,"ELEMENT_SET_NO":999,"REV_AT_EPOCH":795,"BSTAR":0.00087009,"MEAN_MOTION_DOT":0.00057636,"MEAN_MOTION_DDOT":0},{"OBJECT_NAME":"UITMSAT-2","OBJECT_ID":"1998-067YC","EPOCH":"2026-03-30T00:58:06.542400","MEAN_MOTION":15.55077953,"ECCENTRICITY":0.0009168,"INCLINATION":51.6316,"RA_OF_ASC_NODE":330.3073,"ARG_OF_PERICENTER":228.7087,"MEAN_ANOMALY":131.3115,"EPHEMERIS_TYPE":0,"CLASSIFICATION_TYPE":"U","NORAD_CAT_ID":67686,"ELEMENT_SET_NO":999,"REV_AT_EPOCH":795,"BSTAR":0.0010299,"MEAN_MOTION_DOT":0.0007085,"MEAN_MOTION_DDOT":0},{"OBJECT_NAME":"HMU-SAT2","OBJECT_ID":"1998-067YD","EPOCH":"2026-03-30T01:27:37.530720","MEAN_MOTION":15.5384019,"ECCENTRICITY":0.000869,"INCLINATION":51.6327,"RA_OF_ASC_NODE":330.4447,"ARG_OF_PERICENTER":231.6398,"MEAN_ANOMALY":128.3812,"EPHEMERIS_TYPE":0,"CLASSIFICATION_TYPE":"U","NORAD_CAT_ID":67687,"ELEMENT_SET_NO":999,"REV_AT_EPOCH":787,"BSTAR":0.0008513,"MEAN_MOTION_DOT":0.00055756,"MEAN_MOTION_DDOT":0},{"OBJECT_NAME":"LEOPARD","OBJECT_ID":"1998-067YE","EPOCH":"2026-03-29T22:03:04.242240","MEAN_MOTION":15.54617115,"ECCENTRICITY":0.0008837,"INCLINATION":51.6326,"RA_OF_ASC_NODE":330.9957,"ARG_OF_PERICENTER":228.8884,"MEAN_ANOMALY":131.1345,"EPHEMERIS_TYPE":0,"CLASSIFICATION_TYPE":"U","NORAD_CAT_ID":67688,"ELEMENT_SET_NO":999,"REV_AT_EPOCH":785,"BSTAR":0.00095831,"MEAN_MOTION_DOT":0.0006472,"MEAN_MOTION_DDOT":0},{"OBJECT_NAME":"CREW DRAGON 12","OBJECT_ID":"2026-031A","EPOCH":"2026-03-30T03:57:49.771296","MEAN_MOTION":15.48649502,"ECCENTRICITY":0.0006182,"INCLINATION":51.6344,"RA_OF_ASC_NODE":331.1363,"ARG_OF_PERICENTER":249.8594,"MEAN_ANOMALY":110.1729,"EPHEMERIS_TYPE":0,"CLASSIFICATION_TYPE":"U","NORAD_CAT_ID":67796,"ELEMENT_SET_NO":999,"REV_AT_EPOCH":55946,"BSTAR":0.00023377,"MEAN_MOTION_DOT":0.00012299,"MEAN_MOTION_DDOT":0},{"OBJECT_NAME":"PROGRESS-MS 33","OBJECT_ID":"2026-058A","EPOCH":"2026-03-30T03:57:49.771296","MEAN_MOTION":15.48649502,"ECCENTRICITY":0.0006182,"INCLINATION":51.6344,"RA_OF_ASC_NODE":331.1363,"ARG_OF_PERICENTER":249.8594,"MEAN_ANOMALY":110.1729,"EPHEMERIS_TYPE":0,"CLASSIFICATION_TYPE":"U","NORAD_CAT_ID":68319,"ELEMENT_SET_NO":999,"REV_AT_EPOCH":97,"BSTAR":0.00023377,"MEAN_MOTION_DOT":0.00012299,"MEAN_MOTION_DDOT":0}]
