DUPLEX                  
1 66906U 98067XS  26088.93397782  .00037673  00000+0  50515-3 0  9993
2 66906  51.6302 328.0938 0003040 205.3120 154.7723 15.57578129 18287
ISS OBJECT XT           
1 66907U 98067XT  26089.04167207  .00273970  00000+0  16026-2 0  9994
2 66907  51.6239 321.2742 0006253 212.1328 147.9292 15.76980262 18382
ISS OBJECT XU           
1 66908U 98067XU  26089.03767942  .00274217  00000+0  15861-2 0  9997
2 66908  51.6244 321.2426 0006488 211.6504 148.4107 15.77231369 18387
SILVERSAT               
1 66909U 98067XV  26089.05056188  .00407211  00000+0  17961-2 0  9998
2 66909  51.6206 319.8153 0007441 218.1968 141.8508 15.82812364 18403
ISS OBJECT XW           
1 66910U 98067XW  26089.04994753  .00236237  00000+0  14855-2 0  9995
2 66910  51.6227 321.3222 0006600 209.0405 151.0228 15.75441694 18389
ISS OBJECT XX           
1 66911U 98067XX  26089.04986755  .00585789  14316-3  19125-2 0  9992
2 66911  51.6172 318.2730 0009432 222.9554 137.0716 15.89992483 18415
ISS OBJECT XY           
1 66912U 98067XY  26089.00591400  .00135548  00000+0  11880-2 0  9993
2 66912  51.6265 324.0610 0004509 207.7928 152.2828 15.67909669 18331
KNACKSAT-2              
1 67683U 98067XZ  26089.06615953  .00053219  00000+0  82160-3 0  9999
2 67683  51.6326 330.4771 0010084 259.9435 100.0418 15.53540643  7951
CORAL                   
1 67684U 98067YA  26089.05913556  .00109870  00000+0  14285-2 0  9996
2 67684  51.6303 329.6801 0012880 249.3222 110.6389 15.57840895  7965
GXIBA-1                 
1 67685U 98067YB  26089.05572195  .00057636  00000+0  87009-3 0  9994
2 67685  51.6323 330.4074 0012014 256.8362 103.1288 15.54098207  7950
UITMSAT-2               
1 67686U 98067YC  26089.04035350  .00070850  00000+0  10299-2 0  9990
2 67686  51.6316 330.3073 0009168 228.7087 131.3115 15.55077953  7957
HMU-SAT2                
1 67687U 98067YD  26089.06085105  .00055756  00000+0  85130-3 0  9991
2 67687  51.6327 330.4447 0008690 231.6398 128.3812 15.53840190  7873
LEOPARD                 
1 67688U 98067YE  26088.91879910  .00064720  00000+0  95831-3 0  9990
2 67688  51.6326 330.9957 0008837 228.8884 131.1345 15.54617115  7856
CREW DRAGON 12          
1 67796U 26031A   26089.16515939  .00012299  00000+0  23377-3 0  9998
2 67796  51.6344 331.1363 0006182 249.8594 110.1729 15.48649502559462
PROGRESS-MS 33          
1 68319U 26058A   26089.16515939  .00012299  00000+0  23377-3 0  9999
2 68319  51.6344 331.1363 0006182 249.8594 110.1729 15.48649502   971
